[{"OBJECT_NAME":"YAOGAN-43 01D","OBJECT_ID":"2024-148D","EPOCH":"2026-03-09T10:27:16.254720","MEAN_MOTION":15.28369377,"ECCENTRICITY":0.00025569,"INCLINATION":35.001,"RA_OF_ASC_NODE":61.7102,"ARG_OF_PERICENTER":326.2473,"MEAN_ANOMALY":33.808,"EPHEMERIS_TYPE":0,"CLASSIFICATION_TYPE":"U","NORAD_CAT_ID":60461,"ELEMENT_SET_NO":999,"REV_AT_EPOCH":8700,"BSTAR":0.00037765912,"MEAN_MOTION_DOT":0.00010676,"MEAN_MOTION_DDOT":0},{"OBJECT_NAME":"STARLINK-34518","OBJECT_ID":"2025-133J","EPOCH":"2026-03-09T12:13:56.342496","MEAN_MOTION":15.30193054,"ECCENTRICITY":0.00012959,"INCLINATION":53.1587,"RA_OF_ASC_NODE":117.4416,"ARG_OF_PERICENTER":94.6877,"MEAN_ANOMALY":265.4271,"EPHEMERIS_TYPE":0,"CLASSIFICATION_TYPE":"U","NORAD_CAT_ID":64480,"ELEMENT_SET_NO":999,"REV_AT_EPOCH":4100,"BSTAR":0.00081004167,"MEAN_MOTION_DOT":0.00023703,"MEAN_MOTION_DDOT":0}]
