YAOGAN-43 01D           
1 60461U 24148D   26068.43560480  .00010676  00000+0  37766-3 0  9999
2 60461  35.0010  61.7102 0002556 326.2473  33.8080 15.28369377 87008
STARLINK-34518          
1 64480U 25133J   26068.50967989  .00023703  00000+0  81004-3 0  9991
2 64480  53.1587 117.4416 0001295  94.6877 265.4271 15.30193054 41008
